ONEWEB-0215             
1 48800U 21045AK  25284.32101499 -.00000053  00000+0 -17447-3 0  9997
2 48800  87.8990 308.8263 0001975 116.1847 243.9487 13.15549909211572
ONEWEB-0216             
1 48801U 21045AL  25284.33052217 -.00000094  00000+0 -28498-3 0  9995
2 48801  87.8974 308.8618 0001612  94.6116 265.5199 13.15549387211587
ONEWEB-0239             
1 48802U 21045AM  25284.33527201 -.00000159  00000+0 -45636-3 0  9991
2 48802  87.8976 308.8755 0002212 115.7920 244.3438 13.15546575211629
ONEWEB-0249             
1 48967U 21060A   25284.23804373  .00000554  00000+0  14143-2 0  9992
2 48967  87.8970 278.3801 0001797  91.9171 268.2166 13.16588915206855
ONEWEB-0250             
1 48968U 21060B   25284.26231955  .00000040  00000+0  61106-4 0  9999
2 48968  87.8964 276.9459 0002855  98.4590 261.6870 13.25814815207238
ONEWEB-0252             
1 48970U 21060D   25284.26972208  .00000004  00000+0 -22504-4 0  9995
2 48970  87.8963 278.3668 0001559  88.0737 272.0572 13.16596694206906
ONEWEB-0253             
1 48971U 21060E   25284.03063932 -.00000084  00000+0 -25243-3 0  9997
2 48971  87.8969 278.4183 0001786  95.7981 264.3354 13.16594434206805
ONEWEB-0254             
1 48972U 21060F   25284.26814028  .00000028  00000+0  39405-4 0  9995
2 48972  87.8975 278.3590 0001953 100.7609 259.3742 13.16597360206833
ONEWEB-0255             
1 48973U 21060G   25284.23014112  .00000093  00000+0  21003-3 0  9995
2 48973  87.8964 278.3897 0001922  97.4084 262.7265 13.16593931206903
ONEWEB-0256             
1 48974U 21060H   25283.95227297  .00000007  00000+0 -16430-4 0  9999
2 48974  87.8961 278.4559 0001834  85.3366 274.7974 13.16593532206837
ONEWEB-0257             
1 48975U 21060J   25284.28871831  .00000187  00000+0  45548-3 0  9995
2 48975  87.8966 278.3605 0001758  94.0062 266.1270 13.16593767206833
ONEWEB-0258             
1 48976U 21060K   25284.29031012 -.00000008  00000+0 -54078-4 0  9999
2 48976  87.8956 278.3810 0001928  89.0052 271.1300 13.16593751206847
ONEWEB-0259             
1 48977U 21060L   25284.28397877  .00000048  00000+0  91359-4 0  9998
2 48977  87.8970 278.3701 0001892  95.3071 264.8276 13.16593721206875
ONEWEB-0260             
1 48978U 21060M   25284.27526310  .00000093  00000+0  21004-3 0  9993
2 48978  87.8957 278.3929 0001540  79.7804 280.3501 13.16591304206850
ONEWEB-0261             
1 48979U 21060N   25283.94118321 -.00000046  00000+0 -15397-3 0  9994
2 48979  87.8960 278.4615 0001618 101.1105 259.0207 13.16596799206868
ONEWEB-0262             
1 48980U 21060P   25283.99740197  .00000010  00000+0 -84527-5 0  9996
2 48980  87.8970 278.4173 0002085  96.7597 263.3772 13.16593866206837
ONEWEB-0263             
1 48981U 21060Q   25284.25705607  .00000029  00000+0  42180-4 0  9991
2 48981  87.8959 278.3847 0001767 101.9920 258.1409 13.16593271206836
