[{"OBJECT_NAME":"ONEWEB-0215","OBJECT_ID":"2021-045AK","EPOCH":"2025-10-11T07:42:15.695136","MEAN_MOTION":13.15549909,"ECCENTRICITY":0.00019755,"INCLINATION":87.899,"RA_OF_ASC_NODE":308.8263,"ARG_OF_PERICENTER":116.1847,"MEAN_ANOMALY":243.9487,"EPHEMERIS_TYPE":0,"CLASSIFICATION_TYPE":"U","NORAD_CAT_ID":48800,"ELEMENT_SET_NO":999,"REV_AT_EPOCH":21157,"BSTAR":-0.00017446723,"MEAN_MOTION_DOT":-5.3e-7,"MEAN_MOTION_DDOT":0},{"OBJECT_NAME":"ONEWEB-0216","OBJECT_ID":"2021-045AL","EPOCH":"2025-10-11T07:55:57.115488","MEAN_MOTION":13.15549387,"ECCENTRICITY":0.00016126,"INCLINATION":87.8974,"RA_OF_ASC_NODE":308.8618,"ARG_OF_PERICENTER":94.6116,"MEAN_ANOMALY":265.5199,"EPHEMERIS_TYPE":0,"CLASSIFICATION_TYPE":"U","NORAD_CAT_ID":48801,"ELEMENT_SET_NO":999,"REV_AT_EPOCH":21158,"BSTAR":-0.00028498058,"MEAN_MOTION_DOT":-9.4e-7,"MEAN_MOTION_DDOT":0},{"OBJECT_NAME":"ONEWEB-0239","OBJECT_ID":"2021-045AM","EPOCH":"2025-10-11T08:02:47.501664","MEAN_MOTION":13.15546575,"ECCENTRICITY":0.00022125,"INCLINATION":87.8976,"RA_OF_ASC_NODE":308.8755,"ARG_OF_PERICENTER":115.792,"MEAN_ANOMALY":244.3438,"EPHEMERIS_TYPE":0,"CLASSIFICATION_TYPE":"U","NORAD_CAT_ID":48802,"ELEMENT_SET_NO":999,"REV_AT_EPOCH":21162,"BSTAR":-0.00045635932,"MEAN_MOTION_DOT":-1.59e-6,"MEAN_MOTION_DDOT":0},{"OBJECT_NAME":"ONEWEB-0249","OBJECT_ID":"2021-060A","EPOCH":"2025-10-11T05:42:46.978272","MEAN_MOTION":13.16588915,"ECCENTRICITY":0.00017973,"INCLINATION":87.897,"RA_OF_ASC_NODE":278.3801,"ARG_OF_PERICENTER":91.9171,"MEAN_ANOMALY":268.2166,"EPHEMERIS_TYPE":0,"CLASSIFICATION_TYPE":"U","NORAD_CAT_ID":48967,"ELEMENT_SET_NO":999,"REV_AT_EPOCH":20685,"BSTAR":0.0014143051,"MEAN_MOTION_DOT":5.54e-6,"MEAN_MOTION_DDOT":0},{"OBJECT_NAME":"ONEWEB-0250","OBJECT_ID":"2021-060B","EPOCH":"2025-10-11T06:17:44.409120","MEAN_MOTION":13.25814815,"ECCENTRICITY":0.00028554,"INCLINATION":87.8964,"RA_OF_ASC_NODE":276.9459,"ARG_OF_PERICENTER":98.459,"MEAN_ANOMALY":261.687,"EPHEMERIS_TYPE":0,"CLASSIFICATION_TYPE":"U","NORAD_CAT_ID":48968,"ELEMENT_SET_NO":999,"REV_AT_EPOCH":20723,"BSTAR":6.1106151e-5,"MEAN_MOTION_DOT":4.0e-7,"MEAN_MOTION_DDOT":0},{"OBJECT_NAME":"ONEWEB-0252","OBJECT_ID":"2021-060D","EPOCH":"2025-10-11T06:28:23.987712","MEAN_MOTION":13.16596694,"ECCENTRICITY":0.0001559,"INCLINATION":87.8963,"RA_OF_ASC_NODE":278.3668,"ARG_OF_PERICENTER":88.0737,"MEAN_ANOMALY":272.0572,"EPHEMERIS_TYPE":0,"CLASSIFICATION_TYPE":"U","NORAD_CAT_ID":48970,"ELEMENT_SET_NO":999,"REV_AT_EPOCH":20690,"BSTAR":-2.2503898e-5,"MEAN_MOTION_DOT":4.0e-8,"MEAN_MOTION_DDOT":0},{"OBJECT_NAME":"ONEWEB-0253","OBJECT_ID":"2021-060E","EPOCH":"2025-10-11T00:44:07.237248","MEAN_MOTION":13.16594434,"ECCENTRICITY":0.00017865,"INCLINATION":87.8969,"RA_OF_ASC_NODE":278.4183,"ARG_OF_PERICENTER":95.7981,"MEAN_ANOMALY":264.3354,"EPHEMERIS_TYPE":0,"CLASSIFICATION_TYPE":"U","NORAD_CAT_ID":48971,"ELEMENT_SET_NO":999,"REV_AT_EPOCH":20680,"BSTAR":-0.00025243186,"MEAN_MOTION_DOT":-8.4e-7,"MEAN_MOTION_DDOT":0},{"OBJECT_NAME":"ONEWEB-0254","OBJECT_ID":"2021-060F","EPOCH":"2025-10-11T06:26:07.320192","MEAN_MOTION":13.1659736,"ECCENTRICITY":0.0001953,"INCLINATION":87.8975,"RA_OF_ASC_NODE":278.359,"ARG_OF_PERICENTER":100.7609,"MEAN_ANOMALY":259.3742,"EPHEMERIS_TYPE":0,"CLASSIFICATION_TYPE":"U","NORAD_CAT_ID":48972,"ELEMENT_SET_NO":999,"REV_AT_EPOCH":20683,"BSTAR":3.9404518e-5,"MEAN_MOTION_DOT":2.8e-7,"MEAN_MOTION_DDOT":0},{"OBJECT_NAME":"ONEWEB-0255","OBJECT_ID":"2021-060G","EPOCH":"2025-10-11T05:31:24.192768","MEAN_MOTION":13.16593931,"ECCENTRICITY":0.00019229,"INCLINATION":87.8964,"RA_OF_ASC_NODE":278.3897,"ARG_OF_PERICENTER":97.4084,"MEAN_ANOMALY":262.7265,"EPHEMERIS_TYPE":0,"CLASSIFICATION_TYPE":"U","NORAD_CAT_ID":48973,"ELEMENT_SET_NO":999,"REV_AT_EPOCH":20690,"BSTAR":0.00021002696,"MEAN_MOTION_DOT":9.3e-7,"MEAN_MOTION_DDOT":0},{"OBJECT_NAME":"ONEWEB-0256","OBJECT_ID":"2021-060H","EPOCH":"2025-10-10T22:51:16.384608","MEAN_MOTION":13.16593532,"ECCENTRICITY":0.0001834,"INCLINATION":87.8961,"RA_OF_ASC_NODE":278.4559,"ARG_OF_PERICENTER":85.3366,"MEAN_ANOMALY":274.7974,"EPHEMERIS_TYPE":0,"CLASSIFICATION_TYPE":"U","NORAD_CAT_ID":48974,"ELEMENT_SET_NO":999,"REV_AT_EPOCH":20683,"BSTAR":-1.643e-5,"MEAN_MOTION_DOT":7.0e-8,"MEAN_MOTION_DDOT":0},{"OBJECT_NAME":"ONEWEB-0257","OBJECT_ID":"2021-060J","EPOCH":"2025-10-11T06:55:45.261984","MEAN_MOTION":13.16593767,"ECCENTRICITY":0.00017583,"INCLINATION":87.8966,"RA_OF_ASC_NODE":278.3605,"ARG_OF_PERICENTER":94.0062,"MEAN_ANOMALY":266.127,"EPHEMERIS_TYPE":0,"CLASSIFICATION_TYPE":"U","NORAD_CAT_ID":48975,"ELEMENT_SET_NO":999,"REV_AT_EPOCH":20683,"BSTAR":0.00045548072,"MEAN_MOTION_DOT":1.87e-6,"MEAN_MOTION_DDOT":0},{"OBJECT_NAME":"ONEWEB-0258","OBJECT_ID":"2021-060K","EPOCH":"2025-10-11T06:58:02.794368","MEAN_MOTION":13.16593751,"ECCENTRICITY":0.00019286,"INCLINATION":87.8956,"RA_OF_ASC_NODE":278.381,"ARG_OF_PERICENTER":89.0052,"MEAN_ANOMALY":271.13,"EPHEMERIS_TYPE":0,"CLASSIFICATION_TYPE":"U","NORAD_CAT_ID":48976,"ELEMENT_SET_NO":999,"REV_AT_EPOCH":20684,"BSTAR":-5.4077805e-5,"MEAN_MOTION_DOT":-8.0e-8,"MEAN_MOTION_DDOT":0},{"OBJECT_NAME":"ONEWEB-0259","OBJECT_ID":"2021-060L","EPOCH":"2025-10-11T06:48:55.765728","MEAN_MOTION":13.16593721,"ECCENTRICITY":0.00018924,"INCLINATION":87.897,"RA_OF_ASC_NODE":278.3701,"ARG_OF_PERICENTER":95.3071,"MEAN_ANOMALY":264.8276,"EPHEMERIS_TYPE":0,"CLASSIFICATION_TYPE":"U","NORAD_CAT_ID":48977,"ELEMENT_SET_NO":999,"REV_AT_EPOCH":20687,"BSTAR":9.135879e-5,"MEAN_MOTION_DOT":4.8e-7,"MEAN_MOTION_DDOT":0},{"OBJECT_NAME":"ONEWEB-0260","OBJECT_ID":"2021-060M","EPOCH":"2025-10-11T06:36:22.731840","MEAN_MOTION":13.16591304,"ECCENTRICITY":0.00015409,"INCLINATION":87.8957,"RA_OF_ASC_NODE":278.3929,"ARG_OF_PERICENTER":79.7804,"MEAN_ANOMALY":280.3501,"EPHEMERIS_TYPE":0,"CLASSIFICATION_TYPE":"U","NORAD_CAT_ID":48978,"ELEMENT_SET_NO":999,"REV_AT_EPOCH":20685,"BSTAR":0.0002100395,"MEAN_MOTION_DOT":9.3e-7,"MEAN_MOTION_DDOT":0},{"OBJECT_NAME":"ONEWEB-0261","OBJECT_ID":"2021-060N","EPOCH":"2025-10-10T22:35:18.229344","MEAN_MOTION":13.16596799,"ECCENTRICITY":0.0001618,"INCLINATION":87.896,"RA_OF_ASC_NODE":278.4615,"ARG_OF_PERICENTER":101.1105,"MEAN_ANOMALY":259.0207,"EPHEMERIS_TYPE":0,"CLASSIFICATION_TYPE":"U","NORAD_CAT_ID":48979,"ELEMENT_SET_NO":999,"REV_AT_EPOCH":20686,"BSTAR":-0.00015397,"MEAN_MOTION_DOT":-4.6e-7,"MEAN_MOTION_DDOT":0},{"OBJECT_NAME":"ONEWEB-0262","OBJECT_ID":"2021-060P","EPOCH":"2025-10-10T23:56:15.530208","MEAN_MOTION":13.16593866,"ECCENTRICITY":0.00020859,"INCLINATION":87.897,"RA_OF_ASC_NODE":278.4173,"ARG_OF_PERICENTER":96.7597,"MEAN_ANOMALY":263.3772,"EPHEMERIS_TYPE":0,"CLASSIFICATION_TYPE":"U","NORAD_CAT_ID":48980,"ELEMENT_SET_NO":999,"REV_AT_EPOCH":20683,"BSTAR":-8.452654e-6,"MEAN_MOTION_DOT":1.0e-7,"MEAN_MOTION_DDOT":0},{"OBJECT_NAME":"ONEWEB-0263","OBJECT_ID":"2021-060Q","EPOCH":"2025-10-11T06:10:09.644448","MEAN_MOTION":13.16593271,"ECCENTRICITY":0.00017675,"INCLINATION":87.8959,"RA_OF_ASC_NODE":278.3847,"ARG_OF_PERICENTER":101.992,"MEAN_ANOMALY":258.1409,"EPHEMERIS_TYPE":0,"CLASSIFICATION_TYPE":"U","NORAD_CAT_ID":48981,"ELEMENT_SET_NO":999,"REV_AT_EPOCH":20683,"BSTAR":4.2179693e-5,"MEAN_MOTION_DOT":2.9e-7,"MEAN_MOTION_DDOT":0}]
